STARLINK-32194          
1 60315U 24133Q   25139.53479323  .00000363  00000+0  24385-4 0  9991
2 60315  53.1597 223.4028 0000969 108.3271 251.7835 15.30201992 46603
STARLINK-32192          
1 60316U 24133R   25139.49785702  .00000573  00000+0  31480-4 0  9995
2 60316  53.1609 223.1718 0001317  91.1314 268.9837 15.30202713 46699
STARLINK-32189          
1 60317U 24133S   25139.53268580 -.00000824  00000+0 -15710-4 0  9990
2 60317  53.1606 223.3880 0001145  80.8219 279.2911 15.30201090 46692
STARLINK-32190          
1 60318U 24133T   25139.52318166  .00002174  00000+0  85517-4 0  9996
2 60318  53.1597 223.3245 0001021  81.8347 278.2770 15.30194611 46606
STARLINK-32182          
1 60319U 24133U   25139.53374888 -.00002034  00000+0 -56587-4 0  9993
2 60319  53.1611 223.3963 0001221  82.3350 277.7789 15.30187987 46650
STARLINK-32199          
1 60320U 24133V   25139.52635443 -.00000373  00000+0 -47343-6 0  9997
2 60320  53.1601 223.3464 0001066 101.4581 258.6539 15.30196177 46600
STARLINK-32198          
1 60321U 24133W   25139.47053694  .00000182  00000+0  18260-4 0  9994
2 60321  53.1603 223.7103 0001099  92.4916 267.6210 15.30196791 46680
HULIANWAN GAOGUI-02 (H*)
1 60327U 24135A   25139.61564687 -.00000164  00000+0  00000+0 0  9996
2 60327   0.0024 172.4230 0000944 235.2906 204.6140  1.00269398  3557
STARLINK-31745          
1 60329U 24136A   25139.79640054  .00000174  00000+0  17997-4 0  9999
2 60329  53.1613   1.0954 0001136 100.6005 259.5124 15.30201638 45863
STARLINK-32153          
1 60330U 24136B   25139.33814787  .00000337  00000+0  23516-4 0  9992
2 60330  53.1609   3.2111 0001068 113.0213 247.0901 15.30190546 44591
STARLINK-32203          
1 60331U 24136C   25139.82487171  .00004823  00000+0  17501-3 0  9990
2 60331  53.1596 350.6217 0001231 102.7600 257.3538 15.30168060 45878
STARLINK-32171          
1 60332U 24136D   25139.35386371  .00001211  00000+0  53010-4 0  9993
2 60332  53.1630   2.6098 0001477  93.3093 266.8077 15.30199498 44604
STARLINK-32133          
1 60333U 24136E   25139.78902118  .00000253  00000+0  20670-4 0  9995
2 60333  53.1617   1.0493 0001318  92.4549 267.6603 15.30191234 45674
STARLINK-32132          
1 60334U 24136F   25139.78269030 -.00000038  00000+0  10832-4 0  9996
2 60334  53.1613   1.0093 0000687  92.8619 267.2460 15.30188424 45727
STARLINK-32168          
1 60335U 24136G   25139.84483417 -.00000065  00000+0  99115-5 0  9993
2 60335  53.1614   0.6847 0000482 103.7461 256.3593 15.30196752 45832
STARLINK-32079          
1 60336U 24136H   25139.31915192  .00000812  00000+0  39550-4 0  9991
2 60336  53.1613   3.0925 0001080  82.4003 277.7120 15.30195466 44592
STARLINK-32078          
1 60338U 24136K   25139.77214718 -.00001746  00000+0 -46868-4 0  9998
2 60338  53.1601   0.9455 0001237 358.4965   1.6031 15.30179285 45836
STARLINK-32175          
1 60339U 24136L   25139.31281753  .00000454  00000+0  27433-4 0  9992
2 60339  53.1612   3.0530 0001001  73.4745 286.6365 15.30199490 44593
STARLINK-32176          
1 60340U 24136M   25139.04840100  .00000335  00000+0  23445-4 0  9998
2 60340  53.1604   4.2446 0001259  64.1013 296.0117 15.30187994 45727
STARLINK-32185          
1 60341U 24136N   25139.82477979  .00002132  00000+0  84112-4 0  9990
2 60341  53.1605   0.5565 0000995  85.6596 274.4519 15.30194048 45836
STARLINK-32221          
1 60342U 24136P   25139.89326794  .00003330  00000+0  12454-3 0  9996
2 60342  53.1619   0.2829 0001187  96.1061 264.0075 15.30191017 45790
STARLINK-32083          
1 60343U 24136Q   25139.82899920  .00000748  00000+0  37390-4 0  9993
2 60343  53.1600   0.5487 0001060  57.5489 302.5614 15.30197424 45626
STARLINK-32077          
1 60344U 24136R   25139.82161650  .00000680  00000+0  35096-4 0  9992
2 60344  53.1594   0.5268 0001083  89.5938 270.5187 15.30197762 45832
STARLINK-32075          
1 60345U 24136S   25138.90299406  .00001581  00000+0  65517-4 0  9994
2 60345  53.1600   4.7605 0000984  73.7003 286.4105 15.30186013 45696
STARLINK-32082          
1 60346U 24136T   25138.90404944  .00000587  00000+0  31940-4 0  9998
2 60346  53.1599   4.7617 0001236  77.2431 282.8708 15.30193301 45644
STARLINK-32084          
1 60347U 24136U   25139.88059837  .00001447  00000+0  60974-4 0  9999
2 60347  53.1613   0.1950 0001475  69.3533 290.7626 15.30194507 45851
STARLINK-32081          
1 60348U 24136V   25139.35491968  .00001153  00000+0  51048-4 0  9993
2 60348  53.1587   2.5993 0001244  94.5784 265.5359 15.30190255 44608
STARLINK-32181          
1 60349U 24136W   25139.80262255 -.00000083  00000+0  93197-5 0  9993
2 60349  53.1618   0.4158 0001324 102.8668 257.2480 15.30193453 45626
STARLINK-32076          
1 60350U 24136X   25139.80577850  .00003598  00000+0  13356-3 0  9995
2 60350  53.1603   0.4369 0000329  95.5789 264.5249 15.30192417 45838
STARLINK-32097          
1 60351U 24136Y   25139.86477474 -.00000134  00000+0  76078-5 0  9999
2 60351  53.1600   0.0967 0000798  63.4739 296.6343 15.30187614 45895
STRIX-4                 
1 60352U 24137A   25139.55822186  .00006817  00000+0  32974-3 0  9999
2 60352  43.0219 339.2570 0014885 263.6986  96.2168 15.19024180 43912
