OBJECT_NAME,OBJECT_ID,EPOCH,MEAN_MOTION,ECCENTRICITY,INCLINATION,RA_OF_ASC_NODE,ARG_OF_PERICENTER,MEAN_ANOMALY,EPHEMERIS_TYPE,CLASSIFICATION_TYPE,NORAD_CAT_ID,ELEMENT_SET_NO,REV_AT_EPOCH,BSTAR,MEAN_MOTION_DOT,MEAN_MOTION_DDOT
STARLINK-32194,2024-133Q,2025-05-19T12:50:06.135072,15.30201992,.0000969,53.1597,223.4028,108.3271,251.7835,0,U,60315,999,4660,.24385E-4,.363E-5,0
STARLINK-32192,2024-133R,2025-05-19T11:56:54.846528,15.30202713,.0001317,53.1609,223.1718,91.1314,268.9837,0,U,60316,999,4669,.3148E-4,.573E-5,0
STARLINK-32189,2024-133S,2025-05-19T12:47:04.053120,15.30201090,.0001145,53.1606,223.3880,80.8219,279.2911,0,U,60317,999,4669,-.1571E-4,-.824E-5,0
STARLINK-32190,2024-133T,2025-05-19T12:33:22.895424,15.30194611,.0001021,53.1597,223.3245,81.8347,278.2770,0,U,60318,999,4660,.85517E-4,.2174E-4,0
STARLINK-32182,2024-133U,2025-05-19T12:48:35.903232,15.30187987,.0001221,53.1611,223.3963,82.3350,277.7789,0,U,60319,999,4665,-.56587E-4,-.2034E-4,0
STARLINK-32199,2024-133V,2025-05-19T12:37:57.022752,15.30196177,.0001066,53.1601,223.3464,101.4581,258.6539,0,U,60320,999,4660,-.47343E-6,-.373E-5,0
STARLINK-32198,2024-133W,2025-05-19T11:17:34.391616,15.30196791,.0001099,53.1603,223.7103,92.4916,267.6210,0,U,60321,999,4668,.1826E-4,.182E-5,0
HULIANWAN GAOGUI-02 (HG-02),2024-135A,2025-05-19T14:46:31.889568,1.00269398,.0000944,0.0024,172.4230,235.2906,204.6140,0,U,60327,999,355,0,-.164E-5,0
STARLINK-31745,2024-136A,2025-05-19T19:06:49.006656,15.30201638,.0001136,53.1613,1.0954,100.6005,259.5124,0,U,60329,999,4586,.17997E-4,.174E-5,0
STARLINK-32153,2024-136B,2025-05-19T08:06:55.975968,15.30190546,.0001068,53.1609,3.2111,113.0213,247.0901,0,U,60330,999,4459,.23516E-4,.337E-5,0
STARLINK-32203,2024-136C,2025-05-19T19:47:48.915744,15.30168060,.0001231,53.1596,350.6217,102.7600,257.3538,0,U,60331,999,4587,.17501E-3,.4823E-4,0
STARLINK-32171,2024-136D,2025-05-19T08:29:33.824544,15.30199498,.0001477,53.1630,2.6098,93.3093,266.8077,0,U,60332,999,4460,.5301E-4,.1211E-4,0
STARLINK-32133,2024-136E,2025-05-19T18:56:11.429952,15.30191234,.0001318,53.1617,1.0493,92.4549,267.6603,0,U,60333,999,4567,.2067E-4,.253E-5,0
STARLINK-32132,2024-136F,2025-05-19T18:47:04.441920,15.30188424,.0000687,53.1613,1.0093,92.8619,267.2460,0,U,60334,999,4572,.10832E-4,-.38E-6,0
STARLINK-32168,2024-136G,2025-05-19T20:16:33.672288,15.30196752,.0000482,53.1614,0.6847,103.7461,256.3593,0,U,60335,999,4583,.99115E-5,-.65E-6,0
STARLINK-32079,2024-136H,2025-05-19T07:39:34.725888,15.30195466,.000108,53.1613,3.0925,82.4003,277.7120,0,U,60336,999,4459,.3955E-4,.812E-5,0
STARLINK-32078,2024-136K,2025-05-19T18:31:53.516352,15.30179285,.0001237,53.1601,0.9455,358.4965,1.6031,0,U,60338,999,4583,-.46868E-4,-.1746E-4,0
STARLINK-32175,2024-136L,2025-05-19T07:30:27.434592,15.30199490,.0001001,53.1612,3.0530,73.4745,286.6365,0,U,60339,999,4459,.27433E-4,.454E-5,0
STARLINK-32176,2024-136M,2025-05-19T01:09:41.846400,15.30187994,.0001259,53.1604,4.2446,64.1013,296.0117,0,U,60340,999,4572,.23445E-4,.335E-5,0
STARLINK-32185,2024-136N,2025-05-19T19:47:40.973856,15.30194048,.0000995,53.1605,0.5565,85.6596,274.4519,0,U,60341,999,4583,.84112E-4,.2132E-4,0
STARLINK-32221,2024-136P,2025-05-19T21:26:18.350016,15.30191017,.0001187,53.1619,0.2829,96.1061,264.0075,0,U,60342,999,4579,.12454E-3,.333E-4,0
STARLINK-32083,2024-136Q,2025-05-19T19:53:45.530880,15.30197424,.000106,53.1600,0.5487,57.5489,302.5614,0,U,60343,999,4562,.3739E-4,.748E-5,0
STARLINK-32077,2024-136R,2025-05-19T19:43:07.665600,15.30197762,.0001083,53.1594,0.5268,89.5938,270.5187,0,U,60344,999,4583,.35096E-4,.68E-5,0
STARLINK-32075,2024-136S,2025-05-18T21:40:18.686784,15.30186013,.0000984,53.1600,4.7605,73.7003,286.4105,0,U,60345,999,4569,.65517E-4,.1581E-4,0
STARLINK-32082,2024-136T,2025-05-18T21:41:49.871616,15.30193301,.0001236,53.1599,4.7617,77.2431,282.8708,0,U,60346,999,4564,.3194E-4,.587E-5,0
STARLINK-32084,2024-136U,2025-05-19T21:08:03.699168,15.30194507,.0001475,53.1613,0.1950,69.3533,290.7626,0,U,60347,999,4585,.60974E-4,.1447E-4,0
STARLINK-32081,2024-136V,2025-05-19T08:31:05.060352,15.30190255,.0001244,53.1587,2.5993,94.5784,265.5359,0,U,60348,999,4460,.51048E-4,.1153E-4,0
STARLINK-32181,2024-136W,2025-05-19T19:15:46.588320,15.30193453,.0001324,53.1618,0.4158,102.8668,257.2480,0,U,60349,999,4562,.93197E-5,-.83E-6,0
STARLINK-32076,2024-136X,2025-05-19T19:20:19.262400,15.30192417,.0000329,53.1603,0.4369,95.5789,264.5249,0,U,60350,999,4583,.13356E-3,.3598E-4,0
STARLINK-32097,2024-136Y,2025-05-19T20:45:16.537536,15.30187614,.0000798,53.1600,0.0967,63.4739,296.6343,0,U,60351,999,4589,.76078E-5,-.134E-5,0
STRIX-4,2024-137A,2025-05-19T13:23:50.368704,15.19024180,.0014885,43.0219,339.2570,263.6986,96.2168,0,U,60352,999,4391,.32974E-3,.6817E-4,0
